GLOBALSTAR M068 [-]     
1 32266U 07048D   23230.58770155 -.00000078  00000+0  14206-3 0  9997
2 32266  51.9869 180.2613 0000947  84.7544  86.6531 12.62764499733374
GLOBALSTAR M079 [+]     
1 37188U 10054A   23230.80815646 -.00000101  00000+0  16601-4 0  9995
2 37188  52.0060  14.4400 0000619  95.2796  72.0085 12.62266865592720
GLOBALSTAR M074 [+]     
1 37189U 10054B   23231.15211550 -.00000104  00000+0 -56983-6 0  9992
2 37189  52.0033  12.8192 0000839  91.9825  78.9762 12.62268891592763
GLOBALSTAR M076 [+]     
1 37190U 10054C   23230.86012236 -.00000101  00000+0  15604-4 0  9990
2 37190  52.0049  13.8160 0000669  45.3116 119.8132 12.62260503592730
GLOBALSTAR M077 [+]     
1 37191U 10054D   23229.31355389 -.00000080  00000+0  13525-3 0  9993
2 37191  52.0089 335.1914 0000719 100.9146 291.1838 12.62269946593287
GLOBALSTAR M075 [+]     
1 37192U 10054E   23230.84011802 -.00000097  00000+0  38581-4 0  9991
2 37192  51.9952  56.5062 0000596  79.9283 293.4622 12.62260373591978
GLOBALSTAR M073 [+]     
1 37193U 10054F   23230.71228019 -.00000082  00000+0  11993-3 0  9999
2 37193  52.0079 330.2080 0000660 107.0647  44.5212 12.62266420593467
GLOBALSTAR M083 [+]     
1 37739U 11033A   23231.17577870 -.00000088  00000+0  87596-4 0  9995
2 37739  51.9846 278.4414 0000571 143.4303 256.2290 12.62268788562857
GLOBALSTAR M088 [+]     
1 37740U 11033B   23230.19331253 -.00000117  00000+0 -74555-4 0  9996
2 37740  51.9715 187.4847 0000036 204.3465 168.4834 12.62264777558201
GLOBALSTAR M091 [+]     
1 37741U 11033C   23230.84664102 -.00000088  00000+0  89120-4 0  9991
2 37741  51.9991 147.8551 0000161  56.8003 345.7430 12.62265558559040
GLOBALSTAR M085 [+]     
1 37742U 11033D   23231.09760823 -.00000079  00000+0  13858-3 0  9991
2 37742  51.9864  98.7204 0000533  79.5464  84.8009 12.62266495559814
GLOBALSTAR M081 [+]     
1 37743U 11033E   23230.78020031 -.00000074  00000+0  16606-3 0  9996
2 37743  51.9954 102.0625 0000415  47.6729 352.9819 12.62270244559815
GLOBALSTAR M089 [+]     
1 37744U 11033F   23230.81388199 -.00000098  00000+0  33779-4 0  9990
2 37744  51.9935  56.3126 0000865  63.7020 310.0250 12.62266256560537
GLOBALSTAR M084 [+]     
1 38040U 11080A   23230.86194160 -.00000079  00000+0  13699-3 0  9997
2 38040  52.0000 283.1040 0000438  85.9542  85.7801 12.62264896538540
GLOBALSTAR M080 [+]     
1 38041U 11080B   23231.20227312 -.00000086  00000+0  10052-3 0  9991
2 38041  52.0056 283.4391 0000321  57.6794 341.9379 12.62263581538570
GLOBALSTAR M082 [+]     
1 38042U 11080C   23230.35878538 -.00000108  00000+0 -24799-4 0  9999
2 38042  52.0050 241.3812 0000762 153.2326 311.1782 12.62270126539200
GLOBALSTAR M092 [+]     
1 38043U 11080D   23231.05957920 -.00000080  00000+0  13112-3 0  9995
2 38043  52.0100 329.5889 0000852  86.2213  84.3917 12.62271599537785
GLOBALSTAR M090 [+]     
1 38044U 11080E   23230.79604590 -.00000112  00000+0 -47195-4 0  9994
2 38044  51.9857 234.7199 0000275 158.7856  13.6770 12.62267025539245
GLOBALSTAR M086 [+]     
1 38045U 11080F   23231.20031907 -.00000104  00000+0 -15052-5 0  9997
2 38045  51.9869 233.9867 0000874 281.0871 170.0329 12.62269571539307
GLOBALSTAR M097 [+]     
1 39072U 13005A   23231.12785657 -.00000083  00000+0  11551-3 0  9999
2 39072  52.0039 148.0763 0000175  75.3162 284.7724 12.62270156486529
GLOBALSTAR M093 [+]     
1 39073U 13005B   23230.23017422 -.00000082  00000+0  12030-3 0  9991
2 39073  51.9803 145.1818 0000038 233.0235 127.0628 12.62265978486403
GLOBALSTAR M094 [+]     
1 39074U 13005C   23231.02207193 -.00000102  00000+0  91745-5 0  9991
2 39074  51.9963  56.4836 0000628  82.5964 277.4974 12.62267010488018
GLOBALSTAR M096 [+]     
1 39075U 13005D   23231.11430665 -.00000076  00000+0  15446-3 0  9996
2 39075  52.0067 104.1952 0000379  73.6507 286.4401 12.62268040487279
GLOBALSTAR M078 [+]     
1 39076U 13005E   23231.16687362 -.00000112  00000+0 -44890-4 0  9998
2 39076  51.9851 189.4509 0001076 126.6553 233.4413 12.62269502485769
GLOBALSTAR M095 [+]     
1 39077U 13005F   23230.24356283 -.00000114  00000+0 -56108-4 0  9999
2 39077  51.9779 189.7951 0000552 154.9891 205.1002 12.62268011485652
GLOBALSTAR M087 [+]     
1 52888U 22064A   23231.17973270 -.00000112  00000+0  31781-4 0  9990
2 52888  51.9742 184.9331 0009350 317.9288  42.0894 13.37550786 56974
